{"type":"FeatureCollection","features":[{"type":"Feature","properties":{"name":"Lake Malawi"},"geometry":{"type":"Polygon","coordinates":[[[35.260156,-14.277441],[35.260156,-14.277441],[35.260156,-14.277441],[35.260156,-14.277441],[35.283691,-14.365137],[35.273438,-14.390723],[35.257617,-14.402734],[35.23623,-14.40127],[35.193066,-14.352734],[35.129688,-14.28877],[35.047949,-14.17666],[35.01377,-14.157227],[34.958398,-14.14834],[34.947266,-14.134473],[34.941895,-14.070801],[34.929883,-14.041602],[34.905664,-14.021094],[34.88125,-14.012012],[34.856543,-14.014355],[34.84873,-14.035059],[34.85791,-14.074121],[34.85,-14.112402],[34.824805,-14.149805],[34.816406,-14.17793],[34.824805,-14.19668],[34.819336,-14.216602],[34.769824,-14.254492],[34.729492,-14.267969],[34.706543,-14.262012],[34.701172,-14.236621],[34.678027,-14.214355],[34.637207,-14.194922],[34.600293,-14.158789],[34.567383,-14.105664],[34.546777,-14.047656],[34.538281,-13.98457],[34.546191,-13.938086],[34.570508,-13.908105],[34.595703,-13.845703],[34.621582,-13.750879],[34.605273,-13.668945],[34.54668,-13.599805],[34.497559,-13.56748],[34.45791,-13.571973],[34.409766,-13.52959],[34.320898,-13.379395],[34.312891,-13.346387],[34.318652,-13.308398],[34.338184,-13.26543],[34.343848,-13.158105],[34.32998,-12.944531],[34.319531,-12.921484],[34.299414,-12.856934],[34.275488,-12.824512],[34.266699,-12.79082],[34.272754,-12.755664],[34.262695,-12.729785],[34.236328,-12.713086],[34.213867,-12.683984],[34.195605,-12.64248],[34.196875,-12.480762],[34.179688,-12.424902],[34.149707,-12.392871],[34.106836,-12.384473],[34.073926,-12.35293],[34.037207,-12.249805],[34.03252,-12.208594],[34.05918,-12.048535],[34.100488,-11.976465],[34.163672,-11.925391],[34.194141,-11.880078],[34.191797,-11.840234],[34.221875,-11.788379],[34.317969,-11.679199],[34.322656,-11.653027],[34.289258,-11.425195],[34.261816,-11.311621],[34.230469,-11.227734],[34.223633,-11.167285],[34.241113,-11.130664],[34.244727,-11.099219],[34.234375,-11.07334],[34.202539,-10.613672],[34.189648,-10.589648],[34.194727,-10.566504],[34.217969,-10.544238],[34.228906,-10.516797],[34.227344,-10.48457],[34.237695,-10.461426],[34.259961,-10.447559],[34.248438,-10.400195],[34.203516,-10.319434],[34.155273,-10.255957],[34.057227,-10.157324],[34.015918,-10.09834],[33.98457,-10.024121],[33.941211,-9.874023],[33.918652,-9.842773],[33.906641,-9.801758],[33.905078,-9.750977],[33.915918,-9.7125],[33.953711,-9.658203],[33.959375,-9.627344],[33.949609,-9.565332],[33.962109,-9.531738],[33.995605,-9.49541],[34.088574,-9.537793],[34.320898,-9.731543],[34.327832,-9.756543],[34.475977,-9.948828],[34.524219,-10.030176],[34.524219,-10.073145],[34.569922,-10.241113],[34.57998,-10.319824],[34.569727,-10.379688],[34.571582,-10.427637],[34.589551,-10.496191],[34.583594,-10.525098],[34.636523,-10.625586],[34.661816,-10.710059],[34.66709,-10.79248],[34.652344,-10.872852],[34.605664,-10.990234],[34.597656,-11.0375],[34.60791,-11.080469],[34.638086,-11.127148],[34.688477,-11.177441],[34.726465,-11.238184],[34.752148,-11.309473],[34.773828,-11.341699],[34.800879,-11.340918],[34.850586,-11.351953],[34.890625,-11.393555],[34.937012,-11.463477],[34.95918,-11.577246],[34.956934,-11.734766],[34.934277,-11.870898],[34.891016,-11.985352],[34.856836,-12.047656],[34.831934,-12.057813],[34.788281,-12.094141],[34.726074,-12.156641],[34.700195,-12.200098],[34.710645,-12.224414],[34.71416,-12.279199],[34.710938,-12.364453],[34.702441,-12.402832],[34.693848,-12.422363],[34.791211,-12.642969],[34.807617,-12.766602],[34.772461,-12.870117],[34.77002,-12.962598],[34.800488,-13.044043],[34.810449,-13.142383],[34.799805,-13.257812],[34.811621,-13.332324],[34.845801,-13.366016],[34.861523,-13.460449],[34.858691,-13.615625],[34.867578,-13.701172],[34.888281,-13.716992],[35.030078,-13.72998],[35.055957,-13.742969],[35.09707,-13.825],[35.180371,-14.064063],[35.17793,-14.088477],[35.260156,-14.277441]],[[34.621777,-12.066602],[34.621777,-12.066602],[34.621777,-12.066602],[34.621777,-12.066602],[34.641602,-12.013672],[34.624219,-11.984766],[34.591406,-11.971094],[34.554004,-11.982227],[34.541602,-12.018652],[34.580469,-12.06582],[34.621777,-12.066602]],[[34.662109,-12.100781],[34.662109,-12.100781],[34.662109,-12.100781],[34.662109,-12.100781],[34.68418,-12.118652],[34.719336,-12.110645],[34.745996,-12.088379],[34.75625,-12.059082],[34.755957,-12.030762],[34.738965,-12.013086],[34.714941,-12.002734],[34.679883,-12.008887],[34.66748,-12.047559],[34.662109,-12.100781]]]}},{"type":"Feature","properties":{"name":"Lake Victoria"},"geometry":{"type":"Polygon","coordinates":[[[34.717578,-0.091699],[34.717578,-0.091699],[34.717578,-0.091699],[34.813281,-0.275684],[34.798145,-0.296387],[34.70332,-0.324902],[34.576563,-0.329688],[34.477832,-0.35332],[34.458301,-0.368945],[34.475098,-0.464355],[34.456348,-0.495117],[34.424805,-0.502148],[34.375684,-0.458789],[34.328516,-0.459375],[34.275391,-0.44502],[34.217188,-0.441504],[34.174805,-0.470117],[34.079297,-0.579492],[34.060059,-0.644922],[34.068262,-0.724805],[34.105762,-0.798145],[34.162793,-0.879199],[34.144043,-0.939844],[34.121289,-0.974707],[34.070117,-0.997461],[34.063184,-1.033691],[33.931641,-1.187793],[33.902734,-1.246973],[33.906934,-1.278125],[33.951758,-1.320898],[33.941992,-1.339551],[33.843555,-1.34209],[33.828516,-1.363281],[33.828711,-1.390137],[33.815527,-1.405664],[33.82168,-1.424609],[33.915332,-1.49502],[33.920898,-1.51377],[33.88916,-1.512695],[33.790527,-1.485449],[33.730273,-1.480078],[33.685547,-1.488086],[33.667871,-1.506055],[33.645898,-1.570898],[33.666992,-1.604004],[33.675195,-1.638477],[33.601562,-1.69082],[33.592676,-1.761133],[33.546387,-1.799609],[33.488672,-1.822168],[33.40166,-1.811719],[33.365918,-1.82998],[33.331152,-1.864453],[33.297852,-1.921875],[33.450391,-1.915234],[33.477539,-1.927832],[33.49082,-1.952832],[33.520605,-1.979688],[33.524023,-1.996387],[33.412305,-1.997461],[33.374219,-2.032422],[33.300195,-2.023242],[33.232617,-2.071582],[33.226367,-2.095898],[33.275977,-2.124023],[33.517188,-2.162012],[33.58457,-2.167578],[33.752734,-2.111328],[33.794336,-2.12334],[33.80957,-2.157129],[33.808984,-2.192188],[33.767285,-2.237988],[33.593848,-2.35752],[33.510352,-2.429883],[33.432324,-2.45957],[33.442285,-2.502441],[33.437402,-2.521973],[33.415625,-2.53125],[33.210156,-2.488867],[33.067188,-2.410352],[32.998828,-2.401758],[32.944922,-2.420508],[32.90791,-2.449414],[32.892285,-2.48418],[32.88418,-2.664062],[32.947461,-2.818262],[32.962695,-2.848633],[32.892188,-2.861816],[32.779883,-2.971387],[32.760156,-2.984863],[32.773438,-2.910352],[32.764453,-2.86709],[32.847559,-2.797363],[32.861914,-2.757324],[32.814063,-2.646875],[32.824219,-2.543555],[32.810742,-2.515039],[32.751367,-2.513672],[32.702734,-2.50166],[32.685352,-2.490918],[32.671387,-2.455664],[32.643555,-2.43877],[32.548145,-2.507715],[32.535352,-2.494043],[32.535352,-2.462207],[32.521289,-2.453516],[32.439844,-2.444336],[32.391602,-2.422461],[32.356934,-2.393945],[32.319531,-2.303906],[32.283105,-2.282422],[32.240234,-2.283008],[32.210645,-2.30957],[32.173633,-2.366016],[32.114453,-2.377051],[32.096289,-2.394043],[32.140527,-2.486133],[32.150391,-2.525],[32.130273,-2.537012],[32.030762,-2.516211],[31.986133,-2.54668],[31.968652,-2.608301],[31.978906,-2.676855],[32.003418,-2.756641],[31.970508,-2.75166],[31.917676,-2.673926],[31.898047,-2.680566],[31.884863,-2.700391],[31.848242,-2.705176],[31.818945,-2.797949],[31.801465,-2.790723],[31.783984,-2.749902],[31.781641,-2.693164],[31.814941,-2.620898],[31.769727,-2.59707],[31.742773,-2.566504],[31.735352,-2.529688],[31.785938,-2.46543],[31.78125,-2.439551],[31.766699,-2.39873],[31.738867,-2.356641],[31.701758,-2.327832],[31.675,-2.276855],[31.675293,-2.079688],[31.66377,-2.016211],[31.664258,-1.931934],[31.763281,-1.491699],[31.810742,-1.418555],[31.825879,-1.358984],[31.865137,-1.091797],[31.860742,-1.043652],[31.849023,-1.016504],[31.828906,-1.012891],[31.804395,-1.02168],[31.782715,-1.009961],[31.767578,-0.935742],[31.755664,-0.887695],[31.732031,-0.837207],[31.722852,-0.790039],[31.818164,-0.568457],[31.866895,-0.480859],[31.994141,-0.321094],[32.000684,-0.254883],[31.975684,-0.211621],[31.940234,-0.180371],[31.933496,-0.158398],[31.950195,-0.131934],[32.03252,-0.090479],[32.055273,-0.056543],[32.159375,-0.039746],[32.20918,0.008691],[32.258008,-0.00498],[32.286621,0.020557],[32.351074,0.014551],[32.383887,0.066113],[32.413477,0.089355],[32.437695,0.092773],[32.449023,0.056006],[32.486133,0.052734],[32.53291,0.069727],[32.564258,0.098926],[32.587695,0.193262],[32.615234,0.235059],[32.64707,0.252832],[32.680664,0.189453],[32.711426,0.179395],[32.676367,0.137061],[32.670898,0.117236],[32.691699,0.108008],[32.734766,0.10835],[32.779395,0.118848],[32.852539,0.169336],[32.878613,0.168848],[32.895313,0.112402],[32.915039,0.095508],[32.958008,0.107812],[33.021289,0.146582],[33.069922,0.193408],[33.076465,0.239014],[33.137207,0.252148],[33.201074,0.387842],[33.187305,0.428174],[33.245117,0.451172],[33.272656,0.462549],[33.311621,0.451465],[33.364063,0.472021],[33.367773,0.452734],[33.332031,0.368701],[33.353711,0.349268],[33.461328,0.334033],[33.484277,0.314941],[33.484863,0.293311],[33.441309,0.270752],[33.447656,0.244287],[33.483203,0.218115],[33.532617,0.206641],[33.580273,0.222168],[33.639844,0.300488],[33.680371,0.316211],[33.712891,0.30835],[33.72832,0.230273],[33.744531,0.207715],[33.86084,0.185352],[33.944824,0.217627],[33.974512,0.213379],[33.973633,0.088721],[33.982031,0.024658],[34.00293,-0.024219],[34.028711,-0.0625],[34.05918,-0.080713],[34.115234,-0.079492],[34.125195,-0.091016],[34.10752,-0.133398],[34.117188,-0.163477],[34.225586,-0.25918],[34.284668,-0.350293],[34.309961,-0.356055],[34.333984,-0.337305],[34.35332,-0.31377],[34.369922,-0.243359],[34.419531,-0.196191],[34.538086,-0.14375],[34.717578,-0.091699]],[[32.054199,-2.32832],[32.054199,-2.32832],[32.054199,-2.32832],[32.060059,-2.265332],[32.044531,-2.242578],[31.974512,-2.265625],[31.899902,-2.28418],[31.875586,-2.264355],[31.840332,-2.215625],[31.818262,-2.191602],[31.79082,-2.234082],[31.782715,-2.320801],[31.842578,-2.381152],[31.84834,-2.454492],[31.899902,-2.442969],[31.91748,-2.372363],[31.966016,-2.365723],[32.0375,-2.351074],[32.054199,-2.32832]],[[32.297852,-0.391602],[32.297852,-0.391602],[32.297852,-0.391602],[32.319141,-0.3375],[32.268945,-0.290332],[32.193652,-0.332129],[32.179297,-0.310547],[32.182227,-0.235352],[32.147461,-0.232422],[32.086035,-0.231445],[32.064746,-0.254395],[32.080859,-0.290332],[32.104199,-0.322168],[32.130078,-0.336621],[32.208203,-0.362695],[32.205371,-0.397363],[32.166211,-0.441992],[32.144531,-0.487012],[32.132324,-0.525391],[32.271875,-0.472461],[32.297852,-0.391602]],[[33.174805,-2.159277],[33.174805,-2.159277],[33.174805,-2.159277],[33.18291,-2.116016],[33.14043,-2.069141],[33.120117,-2.011328],[33.097168,-1.96543],[33.027344,-1.973438],[32.971582,-1.973242],[32.948633,-1.90166],[32.884277,-1.904492],[32.829883,-1.9375],[32.84707,-1.978906],[32.851367,-2.060547],[32.898633,-2.084863],[32.988672,-2.10498],[33.058887,-2.134961],[33.124707,-2.157813],[33.174805,-2.159277]],[[33.372266,0.215967],[33.372266,0.215967],[33.372266,0.215967],[33.388477,0.272314],[33.317676,0.297852],[33.223828,0.276758],[33.220898,0.233398],[33.217969,0.189941],[33.180371,0.175488],[33.184277,0.15],[33.264258,0.143652],[33.272949,0.120508],[33.339355,0.080029],[33.325098,0.141602],[33.316992,0.18418],[33.372266,0.215967]]]}},{"type":"Feature","properties":{"name":"Lake Rukwa"},"geometry":{"type":"Polygon","coordinates":[[[32.513867,-8.038965],[32.530469,-8.069531],[32.521289,-8.09043],[32.362891,-8.033008],[32.170996,-7.963379],[32.051563,-7.971484],[31.960156,-7.985938],[31.920508,-7.958594],[31.873438,-7.883789],[31.823242,-7.783496],[31.794141,-7.701172],[31.799512,-7.653223],[31.834082,-7.619043],[31.897266,-7.584961],[32.026465,-7.633496],[32.254395,-7.826074],[32.448145,-7.989063],[32.513867,-8.038965],[32.513867,-8.038965],[32.513867,-8.038965],[32.513867,-8.038965]]]}},{"type":"Feature","properties":{"name":"Lake Manyara"},"geometry":{"type":"Polygon","coordinates":[[[35.744238,-3.636133],[35.762305,-3.552832],[35.791602,-3.47998],[35.822461,-3.432422],[35.848242,-3.415918],[35.869141,-3.423633],[35.881738,-3.45166],[35.868555,-3.576172],[35.838086,-3.701367],[35.80625,-3.736816],[35.774609,-3.757129],[35.753125,-3.75],[35.742188,-3.707422],[35.744238,-3.636133],[35.744238,-3.636133],[35.744238,-3.636133],[35.744238,-3.636133]]]}},{"type":"Feature","properties":{"name":"Lake Tanganyika"},"geometry":{"type":"Polygon","coordinates":[[[30.806055,-8.57832],[30.798633,-8.565918],[30.711133,-8.533691],[30.681445,-8.514063],[30.67168,-8.502734],[30.654297,-8.506836],[30.620313,-8.543652],[30.554883,-8.579785],[30.53418,-8.578906],[30.559766,-8.556152],[30.569141,-8.537207],[30.567676,-8.513867],[30.542773,-8.503906],[30.494531,-8.507031],[30.464453,-8.498145],[30.447656,-8.449121],[30.460547,-8.382324],[30.478125,-8.35498],[30.507715,-8.331738],[30.549121,-8.312598],[30.573438,-8.262305],[30.580566,-8.180957],[30.566797,-8.115039],[30.532227,-8.064355],[30.499414,-8.033008],[30.468164,-8.020996],[30.441992,-7.996582],[30.396094,-7.928418],[30.36748,-7.902832],[30.294434,-7.872559],[30.277344,-7.84834],[30.265039,-7.767871],[30.221484,-7.669531],[30.204297,-7.586523],[30.213672,-7.55752],[30.207617,-7.473926],[30.14707,-7.299219],[30.089648,-7.21416],[30.012988,-7.145215],[29.92832,-7.094922],[29.83584,-7.063281],[29.751758,-6.995313],[29.615918,-6.822266],[29.536523,-6.754199],[29.51123,-6.719922],[29.479883,-6.633008],[29.483887,-6.537598],[29.476172,-6.514648],[29.453711,-6.516895],[29.436328,-6.509082],[29.424023,-6.491309],[29.311328,-6.191113],[29.289453,-6.175586],[29.269727,-6.131445],[29.249609,-6.108984],[29.215234,-6.088477],[29.193164,-6.037988],[29.183691,-5.957813],[29.189551,-5.915039],[29.214355,-5.892285],[29.32959,-5.798535],[29.340039,-5.766211],[29.340723,-5.746387],[29.333008,-5.661914],[29.341602,-5.634668],[29.370605,-5.630273],[29.371973,-5.616406],[29.226074,-5.371387],[29.156934,-5.236035],[29.116602,-5.124023],[29.101758,-5.054004],[29.112305,-5.025879],[29.114063,-4.714063],[29.124219,-4.586035],[29.14707,-4.528809],[29.169238,-4.504102],[29.202637,-4.511035],[29.201563,-4.436816],[29.254492,-4.101172],[29.245117,-4.065039],[29.227637,-4.071191],[29.218164,-4.117871],[29.14541,-4.334863],[29.13291,-4.343457],[29.062988,-4.317188],[29.057617,-4.286328],[29.089063,-4.244922],[29.099316,-4.205664],[29.088281,-4.168555],[29.086133,-4.091797],[29.10332,-3.895508],[29.117188,-3.852246],[29.117188,-3.816211],[29.10332,-3.787598],[29.110156,-3.75],[29.137695,-3.703418],[29.147266,-3.616895],[29.138672,-3.49043],[29.142188,-3.40791],[29.15752,-3.369629],[29.175488,-3.346484],[29.195996,-3.338477],[29.298438,-3.355176],[29.331836,-3.389941],[29.331055,-3.462305],[29.334961,-3.662598],[29.346094,-3.793945],[29.364258,-3.856152],[29.434082,-3.976953],[29.432813,-4.000879],[29.523242,-4.203027],[29.578906,-4.299512],[29.629199,-4.365918],[29.652539,-4.420117],[29.641406,-4.489453],[29.607129,-4.78877],[29.613965,-4.880664],[29.600098,-4.896387],[29.607813,-4.907324],[29.637207,-4.913477],[29.684375,-4.939063],[29.749121,-4.984082],[29.791992,-5.040918],[29.812695,-5.109375],[29.816309,-5.152051],[29.802637,-5.168848],[29.800391,-5.256836],[29.787891,-5.263379],[29.773535,-5.354395],[29.751953,-5.405469],[29.758398,-5.466895],[29.812402,-5.527734],[29.865234,-5.630469],[29.923633,-5.771484],[29.951172,-5.860938],[29.947852,-5.898828],[29.916211,-5.938379],[29.856445,-5.97959],[29.817188,-5.99668],[29.798438,-5.989551],[29.775391,-6.000684],[29.748047,-6.030273],[29.728711,-6.09541],[29.717383,-6.196191],[29.72207,-6.244141],[29.747949,-6.287695],[29.82041,-6.37002],[29.943457,-6.479297],[29.949805,-6.498047],[29.965137,-6.500391],[30.023047,-6.469043],[30.09375,-6.457129],[30.137012,-6.464941],[30.166406,-6.482617],[30.182227,-6.509961],[30.299316,-6.61582],[30.356445,-6.690332],[30.397754,-6.778125],[30.45498,-6.855566],[30.528027,-6.922754],[30.563477,-6.992676],[30.561035,-7.06543],[30.543457,-7.103906],[30.520703,-7.107324],[30.5125,-7.115625],[30.521582,-7.165527],[30.57666,-7.276367],[30.599023,-7.375781],[30.588672,-7.463867],[30.604102,-7.541895],[30.64541,-7.609961],[30.725,-7.701172],[30.825391,-7.910547],[30.905957,-8.037598],[30.9125,-8.075],[30.925391,-8.098145],[30.957227,-8.120508],[30.962207,-8.138965],[30.948242,-8.161523],[30.949805,-8.190039],[30.963965,-8.238086],[31.014551,-8.303027],[31.10166,-8.384961],[31.142773,-8.450781],[31.137793,-8.500586],[31.151367,-8.551074],[31.183789,-8.602344],[31.198438,-8.651953],[31.189063,-8.729883],[31.178516,-8.741992],[31.165625,-8.738574],[31.150488,-8.719531],[31.133105,-8.724609],[31.113477,-8.753906],[31.08418,-8.776172],[31.044922,-8.791309],[31.02207,-8.786523],[30.971484,-8.745313],[30.806055,-8.57832],[30.806055,-8.57832],[30.806055,-8.57832]]]}}]}